IRIDIUM 171             
1 43929U 19002H   23222.65687723  .00000265  00000+0  87533-4 0  9996
2 43929  86.3938  69.0590 0002150  83.3548 276.7892 14.34216163239673
IRIDIUM 170             
1 43930U 19002J   23222.83194208  .00001025  00000+0  15858-3 0  9994
2 43930  86.6058  68.8519 0002421  89.6367 270.5127 14.72261006246048
IRIDIUM 167             
1 43931U 19002K   23222.85984369  .00000031  00000+0  39443-5 0  9996
2 43931  86.3927  68.7961 0002198  84.5949 275.5498 14.34216508239708
IRIDIUM 181             
1 56726U 23068S   23222.66789338  .00000362  00000+0  10092-3 0  9991
2 56726  86.8618 107.5347 0003938  81.0220 279.1428 14.43626329 12194
IRIDIUM 177             
1 56727U 23068T   23222.64920182  .00001383  00000+0  17845-3 0  9991
2 56727  86.1962 103.2841 0002520  74.7076 285.4424 14.80248111 12293
IRIDIUM 174             
1 56728U 23068U   23222.77897887  .00001383  00000+0  17849-3 0  9995
2 56728  86.1970 103.3008 0002421  83.5443 276.6054 14.80250633 12311
IRIDIUM 178             
1 56729U 23068V   23222.43534641  .00001437  00000+0  18541-3 0  9995
2 56729  86.5770 106.1595 0002649  82.5860 277.5662 14.80283735 12268
IRIDIUM 179             
1 56730U 23068W   23222.42994811  .00001425  00000+0  18389-3 0  9992
2 56730  86.6781 106.3716 0002729  79.1481 281.0048 14.80287356 12261
